     2.100          NAVIGATION                              RINEX VERSION / TYPE
fic2rin                                 01/09/2009 01:35:15 PGM / RUN BY / DATE
                                                            END OF HEADER
 3 09  1  8 16  0  0.0  .336072407663D-03  .522959453519D-11  .000000000000D+00
     .660000000000D+02  .100937500000D+02  .573559605345D-08 -.290032773729D+01
     .381842255592D-06  .115756966406D-01  .588223338127D-05  .515371393013D+04
     .403200000000D+06  .763684511185D-07  .951204665058D+00 -.206753611565D-06
     .925910081471D+00  .246125000000D+03  .887143157599D+00 -.827177312398D-08
     .307155651409D-09  .100000000000D+01  .151300000000D+04  .000000000000D+00
     .340000000000D+01  .000000000000D+00 -.419095158577D-08  .660000000000D+02
     .396006000000D+06  .400000000000D+01
 4 09  1  8 16  0  0.0 -.292722601444D-03 -.133013600134D-10  .000000000000D+00
     .980000000000D+02  .111562500000D+02  .502770942428D-08  .287790968952D+00
     .750645995140D-06  .862558477093D-02  .929273664951D-05  .515365176582D+04
     .403200000000D+06  .689178705215D-07  .211634913400D+01  .175088644028D-06
     .940980326213D+00  .187500000000D+03  .463209219826D+00 -.817962642856D-08
    -.662884754668D-09  .100000000000D+01  .151300000000D+04  .000000000000D+00
     .340000000000D+01  .000000000000D+00 -.605359673500D-08  .980000000000D+02
     .396006000000D+06  .400000000000D+01
 5 09  1  8 16  0  0.0 -.512143597007D-03 -.626414475846D-10  .000000000000D+00
     .350000000000D+02 -.555625000000D+02  .477412743300D-08 -.119495405806D+00
    -.302866101265D-05  .937828246970D-02  .112000852823D-04  .515364298248D+04
     .403200000000D+06 -.115483999252D-06 -.796563239028D-01  .143423676491D-06
     .945169485760D+00  .160250000000D+03  .129501525550D+01 -.810676625078D-08
     .597167731576D-09  .100000000000D+01  .151300000000D+04  .000000000000D+00
     .240000000000D+01  .000000000000D+00 -.419095158577D-08  .350000000000D+02
     .396006000000D+06  .400000000000D+01
 6 09  1  8 16  0  0.0  .986703671515D-04 -.118234311230D-10  .000000000000D+00
     .880000000000D+02  .931250000000D+01  .565737850967D-08 -.358279597795D+00
     .452622771263D-06  .563605071511D-02  .592507421970D-05  .515369728851D+04
     .403200000000D+06 -.894069671631D-07  .101767878922D+01  .167638063431D-07
     .933372969336D+00  .252406250000D+03 -.148626336255D+01 -.847535303247D-08
     .226080845746D-09  .100000000000D+01  .151300000000D+04  .000000000000D+00
     .240000000000D+01  .000000000000D+00 -.465661287308D-08  .880000000000D+02
     .396006000000D+06  .400000000000D+01
 7 09  1  8 16  0  0.0  .234143808484D-04 -.113686837722D-12  .000000000000D+00
     .480000000000D+02 -.148187500000D+03  .433268047353D-08  .192419959585D+01
    -.766664743423D-05  .230280926917D-02  .510923564434D-05  .515368397331D+04
     .403200000000D+06 -.745058059692D-08 -.103202439066D+01  .204890966415D-07
     .965465000315D+00  .284406250000D+03  .291080468112D+01 -.801783397497D-08
    -.128576784311D-09  .100000000000D+01  .151300000000D+04  .000000000000D+00
     .240000000000D+01  .000000000000D+00 -.107102096081D-07  .480000000000D+02
     .396006000000D+06  .400000000000D+01
 8 09  1  8 16  0  0.0 -.185500830412D-03 -.159161572810D-11  .000000000000D+00
     .600000000000D+02 -.143281250000D+03  .376908556897D-08  .125153005802D+01
    -.737234950066D-05  .105145949638D-01  .607036054134D-05  .515369612694D+04
     .403200000000D+06  .651925802231D-07 -.974530440327D+00  .188127160072D-06
     .986676617579D+00  .276187500000D+03  .296893383633D+01 -.773675083816D-08
    -.186436337250D-09  .100000000000D+01  .151300000000D+04  .000000000000D+00
     .240000000000D+01  .000000000000D+00 -.419095158577D-08  .600000000000D+02
     .396006000000D+06  .400000000000D+01
 9 09  1  8 16  0  0.0  .339364632964D-04  .193267624127D-11  .000000000000D+00
     .910000000000D+02 -.138062500000D+03  .423660504303D-08  .983670749561D+00
    -.747106969357D-05  .201359225903D-01  .608339905739D-05  .515365827751D+04
     .403200000000D+06 -.318512320518D-06 -.106706614871D+01 -.122934579849D-06
     .974407644447D+00  .274687500000D+03  .145529522424D+01 -.831856078716D-08
    -.184293390845D-09  .100000000000D+01  .151300000000D+04  .000000000000D+00
     .340000000000D+01  .000000000000D+00 -.558793544769D-08  .910000000000D+02
     .396006000000D+06  .400000000000D+01
10 09  1  8 16  0  0.0 -.920472666621D-05 -.568434188608D-12  .000000000000D+00
     .710000000000D+02  .138125000000D+03  .416874507354D-08 -.165855169288D+01
     .711344182491D-05  .841879262589D-02  .767782330513D-05  .515377243996D+04
     .403200000000D+06  .651925802231D-07 -.310214575808D+01 -.100582838058D-06
     .960739735421D+00  .231125000000D+03  .577345052625D+00 -.781996859022D-08
     .403588239642D-10  .100000000000D+01  .151300000000D+04  .000000000000D+00
     .340000000000D+01  .000000000000D+00 -.279396772385D-08  .710000000000D+02
     .396006000000D+06  .400000000000D+01
11 09  1  8 16  0  0.0  .111097469926D-04 -.102318153949D-11  .000000000000D+00
     .870000000000D+02 -.105625000000D+02  .643312510834D-08  .177400657015D+01
    -.514090061188D-06  .912401441019D-02  .818446278572D-05  .515365886116D+04
     .403200000000D+06 -.232830643654D-06  .190465319044D+01  .111758708954D-07
     .889600548371D+00  .185843750000D+03  .674991329264D+00 -.881179561809D-08
    -.710743891050D-09  .100000000000D+01  .151300000000D+04  .000000000000D+00
     .240000000000D+01  .000000000000D+00 -.121071934700D-07  .870000000000D+02
     .396006000000D+06  .400000000000D+01
12 09  1  8 16  0  0.0 -.327283982188D-03  .318323145621D-11  .000000000000D+00
     .650000000000D+02 -.470000000000D+02  .427839249793D-08  .212592230899D+01
    -.259652733803D-05  .310464948416D-02  .109840184450D-04  .515374509621D+04
     .403200000000D+06  .111758708954D-07  .188696200068D-01  .409781932831D-07
     .966151770134D+00  .171687500000D+03 -.824670077813D+00 -.764924719328D-08
     .582167106740D-09  .100000000000D+01  .151300000000D+04  .000000000000D+00
     .240000000000D+01  .000000000000D+00 -.116415321827D-07  .650000000000D+02
     .396006000000D+06  .400000000000D+01
13 09  1  8 16  0  0.0  .284214969724D-03  .136424205266D-11  .000000000000D+00
     .100000000000D+03  .264062500000D+02  .397695137027D-08 -.185632489147D+01
     .139512121677D-05  .365386158228D-02 -.156462192535D-06  .515376585197D+04
     .403200000000D+06  .987201929092D-07 -.202632007723D+01  .113621354103D-06
     .995173689047D+00  .400281250000D+03  .150972206880D+01 -.809819446516D-08
     .560737642688D-10  .100000000000D+01  .151300000000D+04  .000000000000D+00
     .340000000000D+01  .000000000000D+00 -.111758708954D-07  .100000000000D+03
     .396006000000D+06  .400000000000D+01
14 09  1  8 16  0  0.0 -.171008054167D-03  .511590769747D-11  .000000000000D+00
     .510000000000D+02  .175625000000D+02  .405695470273D-08 -.229200042334D+01
     .977888703346D-06  .446411280427D-02 -.668689608574D-06  .515356209564D+04
     .403200000000D+06 -.111758708954D-07 -.204496578885D+01 -.633299350739D-07
     .988784575738D+00  .409062500000D+03 -.210039460795D+01 -.817784063989D-08
     .896465912832D-10  .100000000000D+01  .151300000000D+04  .000000000000D+00
     .240000000000D+01  .000000000000D+00 -.931322574615D-08  .510000000000D+02
     .396006000000D+06  .400000000000D+01
15 09  1  8 16  0  0.0 -.239139422774D-03 -.568434188608D-11  .000000000000D+00
     .290000000000D+02  .273750000000D+02  .477055585566D-08 -.172527165164D+01
     .150687992573D-05  .136648945045D-02 -.875443220139D-07  .515375527191D+04
     .403200000000D+06  .316649675369D-07 -.209308881993D+01  .558793544769D-08
     .956991361869D+00  .381750000000D+03 -.804742352566D+00 -.851178312136D-08
     .121790787361D-09  .100000000000D+01  .151300000000D+04  .000000000000D+00
     .240000000000D+01  .000000000000D+00 -.977888703346D-08  .290000000000D+02
     .396006000000D+06  .400000000000D+01
16 09  1  8 16  0  0.0  .834204256535D-04 -.261479726760D-11  .000000000000D+00
     .250000000000D+02 -.580312500000D+02  .419196032626D-08 -.402593709530D+00
    -.306218862534D-05  .493680767249D-02  .109281390905D-04  .515374279404D+04
     .403200000000D+06  .391155481339D-07  .355908467988D-01 -.391155481339D-07
     .967692870944D+00  .170750000000D+03 -.385102537249D+00 -.768496296670D-08
     .639312344211D-09  .100000000000D+01  .151300000000D+04  .000000000000D+00
     .240000000000D+01  .000000000000D+00 -.977888703346D-08  .250000000000D+02
     .396006000000D+06  .400000000000D+01
17 09  1  8 16  0  0.0  .437730923295D-04  .909494701773D-12  .000000000000D+00
     .940000000000D+02  .168750000000D+01  .504771025739D-08 -.148723137398D+01
     .163912773132D-06  .410077453125D-02  .577419996262D-05  .515361594963D+04
     .403200000000D+06  .502914190292D-07  .107712323067D+01 -.931322574615D-08
     .959341238402D+00  .268062500000D+03 -.277581322047D+01 -.808569394447D-08
     .181793286706D-09  .100000000000D+01  .151300000000D+04  .000000000000D+00
     .340000000000D+01  .000000000000D+00 -.102445483208D-07  .940000000000D+02
     .396006000000D+06  .400000000000D+01
18 09  1  8 16  0  0.0 -.950596295297D-04  .363797880709D-11  .000000000000D+00
     .710000000000D+02  .156406250000D+03  .466733727047D-08 -.274391252308D+00
     .816769897938D-05  .988987367600D-02  .734813511372D-05  .515375792885D+04
     .403200000000D+06  .931322574615D-07 -.309460205569D+01  .126659870148D-06
     .944794465248D+00  .231656250000D+03 -.243851590559D+01 -.832284667997D-08
    -.360729311538D-10  .100000000000D+01  .151300000000D+04  .000000000000D+00
     .240000000000D+01  .000000000000D+00 -.107102096081D-07  .710000000000D+02
     .396006000000D+06  .400000000000D+01
